NORAD_CAT_ID,OBJECT_NAME,OBJECT_TYPE,EPOCH,MEAN_MOTION,ECCENTRICITY,INCLINATION,RA_OF_ASC_NODE,ARG_OF_PERICENTER,MEAN_ANOMALY,BSTAR,MEAN_MOTION_DOT,MEAN_MOTION_DDOT,TLE_LINE0,TLE_LINE1,TLE_LINE2,SEMIMAJOR_AXIS,PERIOD,APOGEE,PERIGEE,DECAYED
52289.0,STARLINK-3751,PAYLOAD,2022-11-19 03:35:56,15.08827791,0.0001904,53.2183,115.4804,67.649,292.4704,0.00011086,1.476e-05,0.0,0 STARLINK-3751,1 52289U 22041AE  22323.14995512  .00001476  00000-0  11086-3 0  9990,2 52289  53.2183 115.4804 0001904  67.6490 292.4704 15.08827791 32358,6917.918000000002,95.438,541.1,538.466,0.0
52289.0,STARLINK-3751,PAYLOAD,2022-11-19 16:19:00,15.08838294,0.0001533,53.2169,113.1017,69.8587,290.257,6.6555e-05,7.71e-06,0.0,0 STARLINK-3751,1 52289U 22041AE  22323.67986916  .00000771  00000-0  66555-4 0  9995,2 52289  53.2169 113.1017 0001533  69.8587 290.2570 15.08838294 33653,6917.886,95.438,540.811,538.69,0.0
52289.0,STARLINK-3751,PAYLOAD,2022-11-19 19:29:46,15.08841272,0.0001535,53.2166,112.508,69.4538,290.6619,5.0594e-05,5.17e-06,0.0,0 STARLINK-3751,1 52289U 22041AE  22323.81234757  .00000517  00000-0  50594-4 0  9994,2 52289  53.2166 112.5080 0001535  69.4538 290.6619 15.08841272 32452,6917.877,95.437,540.803,538.68,0.0
52289.0,STARLINK-3751,PAYLOAD,2022-11-20 09:48:14,15.08862851,0.0001504,53.2171,109.8304,70.5547,289.5608,-0.0001424,-2.555e-05,0.0,0 STARLINK-3751,1 52289U 22041AE  22324.40849655 -.00002555  00000-0 -14240-3 0  9992,2 52289  53.2171 109.8304 0001504  70.5547 289.5608 15.08862851 33761,6917.811,95.436,540.716,538.635,0.0
52289.0,STARLINK-3751,PAYLOAD,2022-11-20 16:09:46,15.08848024,0.0001501,53.2165,108.6422,66.5754,293.5396,0.0001877,2.701e-05,0.0,0 STARLINK-3751,1 52289U 22041AE  22324.67345973  .00002701  00000-0  18770-3 0  9998,2 52289  53.2165 108.6422 0001501  66.5754 293.5396 15.08848024 33804,6917.856,95.437,540.759,538.682,0.0
52289.0,STARLINK-3751,PAYLOAD,2022-11-20 19:20:33,15.08849517,0.0001519,53.2166,108.0474,67.2052,292.9101,0.00019798,2.865e-05,0.0,0 STARLINK-3751,1 52289U 22041AE  22324.80593783  .00002865  00000-0  19798-3 0  9999,2 52289  53.2166 108.0474 0001519  67.2052 292.9101 15.08849517 32606,6917.851,95.437,540.7669999999998,538.665,0.0
52289.0,STARLINK-3751,PAYLOAD,2022-11-21 03:17:29,15.0884417,0.0001501999999999,53.2163,106.5609,65.6981,294.4168,0.00013725,1.897e-05,0.0,0 STARLINK-3751,1 52289U 22041AE  22325.13714232  .00001897  00000-0  13725-3 0  9998,2 52289  53.2163 106.5609 0001502  65.6981 294.4168 15.08844170 33871,6917.868,95.437,540.7719999999998,538.694,0.0
52289.0,STARLINK-3751,PAYLOAD,2022-11-21 09:39:01,15.08845283,0.0001519,53.216,105.3715,66.1726,293.9425,0.00013466,1.856e-05,0.0,0 STARLINK-3751,1 52289U 22041AE  22325.40210222  .00001856  00000-0  13466-3 0  9995,2 52289  53.2160 105.3715 0001519  66.1726 293.9425 15.08845283 32699,6917.864000000001,95.437,540.78,538.678,0.0
52289.0,STARLINK-3751,PAYLOAD,2022-11-21 19:11:20,15.08850764,0.0001517,53.2162,103.5874,65.5416,294.5734,8.442200000000001e-05,1.056e-05,0.0,0 STARLINK-3751,1 52289U 22041AE  22325.79953796  .00001056  00000-0  84422-4 0  9990,2 52289  53.2162 103.5874 0001517  65.5416 294.5734 15.08850764 32751,6917.847,95.437,540.762,538.663,0.0
52289.0,STARLINK-3751,PAYLOAD,2022-11-22 09:29:47,15.08853743,0.000153,53.2164,100.911,65.8736,294.2416,5.6938e-05,6.19e-06,0.0,0 STARLINK-3751,1 52289U 22041AE  22326.39569230  .00000619  00000-0  56938-4 0  9998,2 52289  53.2164 100.9110 0001530  65.8736 294.2416 15.08853743 34060,6917.8380000000025,95.437,540.762,538.645,0.0
52289.0,STARLINK-3751,PAYLOAD,2022-11-22 14:15:57,15.08851685,0.0001519,53.2169,100.0181,75.0415,285.0745,2.5967e-05,1.25e-06,0.0,0 STARLINK-3751,1 52289U 22041AE  22326.59441286  .00000125  00000-0  25967-4 0  9990,2 52289  53.2169 100.0181 0001519  75.0415 285.0745 15.08851685 32871,6917.845,95.437,540.76,538.659,0.0
52289.0,STARLINK-3751,PAYLOAD,2022-11-22 15:51:20,15.08849577,0.000152,53.2168,99.7215,65.6663,294.4488,1.2684e-05,-8.6e-07,0.0,0 STARLINK-3751,1 52289U 22041AE  22326.66065407 -.00000086  00000-0  12684-4 0  9994,2 52289  53.2168  99.7215 0001520  65.6663 294.4488 15.08849577 32880,6917.851,95.437,540.768,538.665,0.0
52289.0,STARLINK-3751,PAYLOAD,2022-11-23 09:20:35,15.08840344,0.0001467,53.2172,96.4497,70.4529,289.6621,-7.682899999999999e-06,-4.1e-06,0.0,0 STARLINK-3751,1 52289U 22041AE  22327.38929756 -.00000410  00000-0 -76829-5 0  9994,2 52289  53.2172  96.4497 0001467  70.4529 289.6621 15.08840344 34213,6917.879,95.438,540.759,538.729,0.0
52289.0,STARLINK-3751,PAYLOAD,2022-11-23 15:42:09,15.08815909,0.0001172,53.2171,95.2608,49.31800000000001,310.7914,-0.00019274,-3.352e-05,0.0,0 STARLINK-3751,1 52289U 22041AE  22327.65427982 -.00003352  00000-0 -19274-3 0  9995,2 52289  53.2171  95.2608 0001172  49.3180 310.7914 15.08815909 34258,6917.954000000002,95.439,540.63,539.008,0.0
52289.0,STARLINK-3751,PAYLOAD,2022-11-24 01:14:28,15.088219,0.0002152,53.2173,93.4772,76.5259,283.5973,-0.00016288,-2.878e-05,0.0,0 STARLINK-3751,1 52289U 22041AE  22328.05172024 -.00002878  00000-0 -16288-3 0  9998,2 52289  53.2173  93.4772 0002152  76.5259 283.5973 15.08821900 34317,6917.936,95.439,541.289,538.312,0.0
52289.0,STARLINK-3751,PAYLOAD,2022-11-24 07:36:00,15.08833612,0.0001396999999999,53.2173,92.2876,59.9199,300.1932,-4.949e-05,-1.075e-05,0.0,0 STARLINK-3751,1 52289U 22041AE  22328.31666899 -.00001075  00000-0 -49490-4 0  9995,2 52289  53.2173  92.2876 0001397  59.9199 300.1932 15.08833612 34355,6917.9,95.438,540.731,538.798,0.0
52289.0,STARLINK-3751,PAYLOAD,2022-11-24 13:57:32,15.08834537,0.0001506999999999,53.2177,91.098,64.8136,295.3012,3.212e-05,2.23e-06,0.0,0 STARLINK-3751,1 52289U 22041AE  22328.58162734  .00000223  00000-0  32120-4 0  9997,2 52289  53.2177  91.0980 0001507  64.8136 295.3012 15.08834537 33171,6917.897,95.438,540.805,538.72,0.0
52289.0,STARLINK-3751,PAYLOAD,2022-11-25 01:05:14,15.08838875,0.0001607,53.2179,89.0166,61.6264,298.4890000000001,8.0795e-05,9.98e-06,0.0,0 STARLINK-3751,1 52289U 22041AE  22329.04530490  .00000998  00000-0  80795-4 0  9997,2 52289  53.2179  89.0166 0001607  61.6264 298.4890 15.08838875 34464,6917.884,95.438,540.861,538.637,0.0
52289.0,STARLINK-3751,PAYLOAD,2022-11-25 12:12:55,15.0885576,0.0001314,53.2177,86.9349,29.0598,331.0467,4.969600000000001e-05,5.03e-06,0.0,0 STARLINK-3751,1 52289U 22041AE  22329.50897566  .00000503  00000-0  49696-4 0  9995,2 52289  53.2177  86.9349 0001314  29.0598 331.0467 15.08855760 33313,6917.831999999999,95.437,540.606,538.788,0.0
52289.0,STARLINK-3751,PAYLOAD,2022-11-25 15:23:42,15.08844102,0.0001252,53.2176,86.3401,40.6008,319.5077,0.00032698,4.92e-05,0.0,0 STARLINK-3751,1 52289U 22041AE  22329.64145840  .00004920  00000-0  32698-3 0  9991,2 52289  53.2176  86.3401 0001252  40.6008 319.5077 15.08844102 33339,6917.868,95.437,540.599,538.867,0.0
52289.0,STARLINK-3751,PAYLOAD,2022-11-26 07:17:33,15.08851127,0.0001472,53.2174,83.3663,62.5318,297.5824,0.00024522,3.618e-05,0.0,0 STARLINK-3751,1 52289U 22041AE  22330.30385974  .00003618  00000-0  24522-3 0  9990,2 52289  53.2174  83.3663 0001472  62.5318 297.5824 15.08851127 34651,6917.846,95.437,540.73,538.693,0.0
52289.0,STARLINK-3751,PAYLOAD,2022-11-26 16:49:51,15.08863252,0.0001415,53.2169,81.5821,60.0743,300.0389,0.00039,5.928e-05,0.0,0 STARLINK-3751,1 52289U 22041AE  22330.70129222  .00005928  00000-0  39000-3 0  9999,2 52289  53.2169  81.5821 0001415  60.0743 300.0389 15.08863252 33492,6917.809,95.436,540.653,538.695,0.0
52289.0,STARLINK-3751,PAYLOAD,2022-11-27 07:08:19,15.08854483,0.0001536,53.2168,78.9062,58.9327,301.1815,0.00017426,2.488e-05,0.0,0 STARLINK-3751,1 52289U 22041AE  22331.29745125  .00002488  00000-0  17426-3 0  9996,2 52289  53.2168  78.9062 0001536  58.9327 301.1815 15.08854483 34804,6917.8359999999975,95.437,540.764,538.639,0.0
52289.0,STARLINK-3751,PAYLOAD,2022-11-27 13:29:52,15.08843946,0.0001429,53.2169,77.7159,57.5267,302.5863,-3.2407e-05,-8.04e-06,0.0,0 STARLINK-3751,1 52289U 22041AE  22331.56241225 -.00000804  00000-0 -32407-4 0  9997,2 52289  53.2169  77.7159 0001429  57.5267 302.5863 15.08843946 34842,6917.868,95.437,540.722,538.745,0.0
52289.0,STARLINK-3751,PAYLOAD,2022-11-28 06:59:07,15.08832016,0.0001622,53.2171,74.4461,55.0572,305.0573,-0.00015973,-2.829e-05,0.0,0 STARLINK-3751,1 52289U 22041AE  22332.29106073 -.00002829  00000-0 -15973-3 0  9996,2 52289  53.2171  74.4461 0001622  55.0572 305.0573 15.08832016 34956,6917.905,95.438,540.8919999999998,538.648,0.0
52289.0,STARLINK-3751,PAYLOAD,2022-11-28 13:20:40,15.0883681,0.0001625,53.2183,73.257,58.5973,301.5178,-8.259e-05,-1.602e-05,0.0,0 STARLINK-3751,1 52289U 22041AE  22332.55602008 -.00001602  00000-0 -82590-4 0  9992,2 52289  53.2183  73.2570 0001625  58.5973 301.5178 15.08836810 33770,6917.89,95.438,540.879,538.631,0.0
52289.0,STARLINK-3751,PAYLOAD,2022-11-29 00:28:21,15.08848103,0.0001459,53.2171,71.1751,54.2758,305.837,0.00016818,2.39e-05,0.0,0 STARLINK-3751,1 52289U 22041AE  22333.01969460  .00002390  00000-0  16818-3 0  9994,2 52289  53.2171  71.1751 0001459  54.2758 305.8370 15.08848103 35067,6917.856,95.437,540.73,538.711,0.0
52289.0,STARLINK-3751,PAYLOAD,2022-11-29 06:49:54,15.08845337,0.0001520999999999,53.2171,69.9856,62.2384,297.8762,0.00022797,3.343e-05,0.0,0 STARLINK-3751,1 52289U 22041AE  22333.28465606  .00003343  00000-0  22797-3 0  9998,2 52289  53.2171  69.9856 0001521  62.2384 297.8762 15.08845337 33881,6917.864000000001,95.437,540.781,538.677,0.0
52289.0,STARLINK-3751,PAYLOAD,2022-11-29 16:22:13,15.08845455,0.000155,53.2168,68.2019,55.1135,305.0002,0.00020096,2.912e-05,0.0,0 STARLINK-3751,1 52289U 22041AE  22333.68209659  .00002912  00000-0  20096-3 0  9997,2 52289  53.2168  68.2019 0001550  55.1135 305.0002 15.08845455 35160,6917.864000000001,95.437,540.8009999999998,538.656,0.0
